NORAD_CAT_ID,OBJECT_NAME,OBJECT_TYPE,EPOCH,MEAN_MOTION,ECCENTRICITY,INCLINATION,RA_OF_ASC_NODE,ARG_OF_PERICENTER,MEAN_ANOMALY,BSTAR,MEAN_MOTION_DOT,MEAN_MOTION_DDOT,TLE_LINE0,TLE_LINE1,TLE_LINE2,SEMIMAJOR_AXIS,PERIOD,APOGEE,PERIGEE,DECAYED
56767.0,STARLINK-6197,PAYLOAD,2023-08-20 07:20:01,14.99214371,0.0002439,69.9999,195.3816,287.7669,72.3225,-0.00088765,-0.00010913,0.0,0 STARLINK-6197,1 56767U 23078A   23232.30556731 -.00010913  00000-0 -88765-3 0  9996,2 56767  69.9999 195.3816 0002439 287.7669  72.3225 14.99214371 12780,6947.459,96.05,571.019,567.63,0.0
56767.0,STARLINK-6197,PAYLOAD,2023-08-21 02:33:42,14.98743961,0.0003126,69.9994,193.3618,273.3135,86.7666,-0.0052455,-0.00062794,0.0,0 STARLINK-6197,1 56767U 23078A   23233.10674729 -.00062794  00000-0 -52455-2 0  9993,2 56767  69.9994 193.3618 0003126 273.3135  86.7666 14.98743961 12909,6948.913,96.08,572.95,568.606,0.0
56767.0,STARLINK-6197,PAYLOAD,2023-08-22 02:35:26,14.98648677,0.0003064,69.9996,190.8357,274.4055,85.6754,-0.0047976,-0.00057343,0.0,0 STARLINK-6197,1 56767U 23078A   23234.10794009 -.00057343  00000-0 -47976-2 0  9994,2 56767  69.9996 190.8357 0003064 274.4055  85.6754 14.98648677 13058,6949.208,96.087,573.202,568.943,0.0
56767.0,STARLINK-6197,PAYLOAD,2023-08-23 04:00:00,14.98336546,0.00028,70.0015,188.1664,272.7598,36.6899,-0.0013384,-0.00016029,0.0,0 STARLINK-6197,1 56767U 23078A   23235.16667824 -.00016029  00000-0 -13384-2 0  9997,2 56767  70.0015 188.1664 0002800 272.7598  36.6899 14.98336546 13217,6950.173,96.107,573.984,570.092,0.0
56767.0,STARLINK-6197,PAYLOAD,2023-08-24 20:16:53,14.98329153,0.0002465,70.001,183.9368,254.3381,105.7506,-1.2375e-05,-2.41e-06,0.0,0 STARLINK-6197,1 56767U 23078A   23236.84506939 -.00000241  00000-0 -12375-4 0  9992,2 56767  70.0010 183.9368 0002465 254.3381 105.7506 14.98329153 13207,6950.196,96.107,573.774,570.347,0.0
56767.0,STARLINK-6197,PAYLOAD,2023-08-25 02:41:26,14.98328176,0.0002509,70.0011,183.2634,249.682,110.4069,-1.2433e-05,-2.41e-06,0.0,0 STARLINK-6197,1 56767U 23078A   23237.11210984 -.00000241  00000-0 -12433-4 0  9990,2 56767  70.0011 183.2634 0002509 249.6820 110.4069 14.98328176 13505,6950.199,96.107,573.807,570.32,0.0
56767.0,STARLINK-6197,PAYLOAD,2023-08-25 05:53:42,14.9834057,0.0002394,70.0011,182.9269,256.0448,104.0445,-0.00021209,-2.623e-05,0.0,0 STARLINK-6197,1 56767U 23078A   23237.24562704 -.00002623  00000-0 -21209-3 0  9990,2 56767  70.0011 182.9269 0002394 256.0448 104.0445 14.98340570 13526,6950.16,96.106,573.689,570.361,0.0
56767.0,STARLINK-6197,PAYLOAD,2023-08-25 20:18:54,14.98327466,0.0002457,70.0012,181.4123,248.9437,111.1459,3.4174e-05,3.15e-06,0.0,0 STARLINK-6197,1 56767U 23078A   23237.84646920  .00000315  00000-0  34174-4 0  9999,2 56767  70.0012 181.4123 0002457 248.9437 111.1459 14.98327466 13611,6950.201,96.107,573.773,570.358,0.0
56767.0,STARLINK-6197,PAYLOAD,2023-08-26 07:31:51,14.9833029,0.000257,70.0008,180.2321,266.619,93.4675,2.0109e-05,1.47e-06,0.0,0 STARLINK-6197,1 56767U 23078A   23238.31378882  .00000147  00000-0  20109-4 0  9997,2 56767  70.0008 180.2321 0002570 266.6190  93.4675 14.98330290 13422,6950.192,96.107,573.843,570.271,0.0
56767.0,STARLINK-6197,PAYLOAD,2023-08-26 20:20:55,14.98329648,0.0002569,70.0009,178.8855,268.1375,91.949,2.1366e-06,-6.7e-07,0.0,0 STARLINK-6197,1 56767U 23078A   23238.84786988 -.00000067  00000-0  21366-5 0  9994,2 56767  70.0009 178.8855 0002569 268.1375  91.9490 14.98329648 13500,6950.194,96.107,573.844,570.273,0.0
56767.0,STARLINK-6197,PAYLOAD,2023-08-27 01:09:20,14.98328245,0.0002603,70.0008,178.3808,268.1397,91.9464,-1.531e-05,-2.76e-06,0.0,0 STARLINK-6197,1 56767U 23078A   23239.04815127 -.00000276  00000-0 -15310-4 0  9999,2 56767  70.0008 178.3808 0002603 268.1397  91.9464 14.98328245 13799,6950.198,96.107,573.872,570.254,0.0
56767.0,STARLINK-6197,PAYLOAD,2023-08-27 05:57:44,14.98330692,0.0002612,70.0008,177.8755,270.3586,89.7274,1.1995e-05,5e-07,0.0,0 STARLINK-6197,1 56767U 23078A   23239.24842907  .00000050  00000-0  11995-4 0  9990,2 56767  70.0008 177.8755 0002612 270.3586  89.7274 14.98330692 13567,6950.191,96.107,573.871,570.24,0.0
56767.0,STARLINK-6197,PAYLOAD,2023-08-27 20:22:56,14.98330331,0.000265,70.0007,176.3608,270.4548,89.6307,7.7685e-06,0.0,0.0,0 STARLINK-6197,1 56767U 23078A   23239.84926906  .00000000  00000-0  77685-5 0  9992,2 56767  70.0007 176.3608 0002650 270.4548  89.6307 14.98330331 13654,6950.192,96.107,573.899,570.215,0.0
56767.0,STARLINK-6197,PAYLOAD,2023-08-28 02:47:28,14.98331643,0.0002655,70.0007,175.6881,271.497,88.5885,2.2653e-05,1.77e-06,0.0,0 STARLINK-6197,1 56767U 23078A   23240.11630776  .00000177  00000-0  22653-4 0  9990,2 56767  70.0007 175.6881 0002655 271.4970  88.5885 14.98331643 13953,6950.188,96.107,573.898,570.208,0.0
56767.0,STARLINK-6197,PAYLOAD,2023-08-28 20:24:57,14.98329529,0.0002624,70.0007,173.8369,274.2099,85.876,5.1993e-06,-3.1e-07,0.0,0 STARLINK-6197,1 56767U 23078A   23240.85066918 -.00000031  00000-0  51993-5 0  9992,2 56767  70.0007 173.8369 0002624 274.2099  85.8760 14.98329529 13809,6950.194,96.107,573.883,570.236,0.0
56767.0,STARLINK-6197,PAYLOAD,2023-08-29 06:01:46,14.98330988,0.0002627,70.0008,172.827,274.4667,85.6191,2.0412e-05,1.51e-06,0.0,0 STARLINK-6197,1 56767U 23078A   23241.25122770  .00000151  00000-0  20412-4 0  9999,2 56767  70.0008 172.8270 0002627 274.4667  85.6191 14.98330988 14129,6950.19,96.107,573.881,570.229,0.0
56767.0,STARLINK-6197,PAYLOAD,2023-08-29 20:26:58,14.98328797,0.0002616,70.0007,171.3124,272.8155,87.2705,-2.4866e-05,-3.9e-06,0.0,0 STARLINK-6197,1 56767U 23078A   23241.85206994 -.00000390  00000-0 -24866-4 0  9990,2 56767  70.0007 171.3124 0002616 272.8155  87.2705 14.98328797 13956,6950.197,96.107,573.88,570.243,0.0
56767.0,STARLINK-6197,PAYLOAD,2023-08-30 06:03:47,14.9833002,0.0002623,70.0007,170.3026,272.4437,87.6422,-9.3301e-06,-2.04e-06,0.0,0 STARLINK-6197,1 56767U 23078A   23242.25262886 -.00000204  00000-0 -93301-5 0  9992,2 56767  70.0007 170.3026 0002623 272.4437  87.6422 14.98330020 14271,6950.193,96.107,573.881,570.235,0.0
56767.0,STARLINK-6197,PAYLOAD,2023-08-30 12:28:19,14.98328937,0.0002647,70.0007,169.6297,269.5722,90.5134,-3.1834e-05,-4.73e-06,0.0,0 STARLINK-6197,1 56767U 23078A   23242.51966984 -.00000473  00000-0 -31834-4 0  9991,2 56767  70.0007 169.6297 0002647 269.5722  90.5134 14.98328937 14055,6950.196,96.107,573.901,570.221,0.0
56767.0,STARLINK-6197,PAYLOAD,2023-08-31 01:17:23,14.98329682,0.0002657,70.0007,168.283,268.6529,91.4326,-7.0784e-06,-1.77e-06,0.0,0 STARLINK-6197,1 56767U 23078A   23243.05374891 -.00000177  00000-0 -70784-5 0  9990,2 56767  70.0007 168.2830 0002657 268.6529  91.4326 14.98329682 14139,6950.194,96.107,573.906,570.212,0.0
56767.0,STARLINK-6197,PAYLOAD,2023-09-01 01:19:24,14.98328364,0.0002769,70.0005,165.7583,268.8654,91.2188,4.3631e-06,-4.1e-07,0.0,0 STARLINK-6197,1 56767U 23078A   23244.05514991 -.00000041  00000-0  43631-5 0  9998,2 56767  70.0005 165.7583 0002769 268.8654  91.2188 14.98328364 14544,6950.198,96.107,573.987,570.138,0.0
56767.0,STARLINK-6197,PAYLOAD,2023-09-01 12:32:20,14.98334398,0.0003472,70.0005,164.5803,270.7213,89.3548,0.00019069,2.183e-05,0.0,0 STARLINK-6197,1 56767U 23078A   23244.52246020  .00002183  00000-0  19069-3 0  9999,2 56767  70.0005 164.5803 0003472 270.7213  89.3548 14.98334398 14352,6950.179,96.107,574.457,569.631,0.0
56767.0,STARLINK-6197,PAYLOAD,2023-09-01 17:20:44,14.98332718,0.0003752,70.0004,164.0764,269.8984,90.1745,6.9065e-05,7.31e-06,0.0,0 STARLINK-6197,1 56767U 23078A   23244.72274158  .00000731  00000-0  69065-4 0  9993,2 56767  70.0004 164.0764 0003752 269.8984  90.1745 14.98332718 14642,6950.184,96.107,574.657,569.442,0.0
56767.0,STARLINK-6197,PAYLOAD,2023-09-02 04:33:41,14.98335745,0.0002829,69.9982,162.8963,269.7234,90.3601,7.6163e-05,8.16e-06,0.0,0 STARLINK-6197,1 56767U 23078A   23245.19006162  .00000816  00000-0  76163-4 0  9994,2 56767  69.9982 162.8963 0002829 269.7234  90.3601 14.98335745 14457,6950.175,96.107,574.006,570.074,0.0
56767.0,STARLINK-6197,PAYLOAD,2023-09-02 18:58:54,14.98330798,0.0002828,69.9958,161.3812,269.4736,90.6099,-1.9159e-05,-3.22e-06,0.0,0 STARLINK-6197,1 56767U 23078A   23245.79090671 -.00000322  00000-0 -19159-4 0  9994,2 56767  69.9958 161.3812 0002828 269.4736  90.6099 14.98330798 14547,6950.19,96.107,574.021,570.09,0.0
56767.0,STARLINK-6197,PAYLOAD,2023-09-03 01:23:26,14.98332623,0.0003035,70.0,160.7081,273.4474,86.6338,-8.5309e-06,-1.95e-06,0.0,0 STARLINK-6197,1 56767U 23078A   23246.05794530 -.00000195  00000-0 -85309-5 0  9998,2 56767  70.0000 160.7081 0003035 273.4474  86.6338 14.98332623 14847,6950.185,96.107,574.159,569.94,0.0
56767.0,STARLINK-6197,PAYLOAD,2023-09-03 06:11:50,14.98336832,0.0002913,70.0006,160.2037,271.6529,88.4296,5.8404e-05,6.04e-06,0.0,0 STARLINK-6197,1 56767U 23078A   23246.25822040  .00000604  00000-0  58404-4 0  9996,2 56767  70.0006 160.2037 0002913 271.6529  88.4296 14.98336832 14618,6950.172,96.107,574.061,570.012,0.0
56767.0,STARLINK-6197,PAYLOAD,2023-09-04 03:01:35,14.98330167,0.0002738,70.001,158.0161,271.5906,88.494,-7.528e-05,-9.91e-06,0.0,0 STARLINK-6197,1 56767U 23078A   23247.12610780 -.00000991  00000-0 -75280-4 0  9991,2 56767  70.0010 158.0161 0002738 271.5906  88.4940 14.98330167 15004,6950.192,96.107,573.96,570.154,0.0
56767.0,STARLINK-6197,PAYLOAD,2023-09-04 11:02:15,14.98331598,0.0002823,70.0011,157.1739,270.2534,89.8301,-4.9651e-05,-6.85e-06,0.0,0 STARLINK-6197,1 56767U 23078A   23247.45990565 -.00000685  00000-0 -49651-4 0  9992,2 56767  70.0011 157.1739 0002823 270.2534  89.8301 14.98331598 14794,6950.188,96.107,574.015,570.091,0.0
56767.0,STARLINK-6197,PAYLOAD,2023-09-04 23:51:20,14.98335836,0.0002578,70.0008,155.8281,267.5674,92.519,-0.00011406,-1.454e-05,0.0,0 STARLINK-6197,1 56767U 23078A   23247.99398546 -.00001454  00000-0 -11406-3 0  9993,2 56767  70.0008 155.8281 0002578 267.5674  92.5190 14.98335836 14873,6950.175,96.107,573.832,570.248,0.0
